[
    {
        "Altitude(m)": 611965.1971460357,
        "Argument of Periapsis(deg)": 0.0,
        "Eccentricity": 0.0,
        "Inclination(deg)": 60.0,
        "Latitude(deg)": 59.140197303036736,
        "Longitude(deg)": -1.0303706323092998,
        "Mean Anomaly(deg)": 81.8182,
        "RAAN(deg)": 25.0,
        "Satellite Name": "Test1 115",
        "Satellite Number": 115,
        "Semi-Major Axis(m)": 6980739.136638005,
        "Time(s)": 0
    },
    {
        "Altitude(m)": 611995.8233524951,
        "Argument of Periapsis(deg)": 0.00010418945913296404,
        "Eccentricity": 0.0,
        "Inclination(deg)": 60.0,
        "Latitude(deg)": 59.28329951618912,
        "Longitude(deg)": 0.1029916957801328,
        "Mean Anomaly(deg)": 82.43830614546184,
        "RAAN(deg)": 24.99957995086026,
        "Satellite Name": "Test1 115",
        "Satellite Number": 115,
        "Semi-Major Axis(m)": 6980739.136638005,
        "Time(s)": 10
    },
    {
        "Altitude(m)": 612024.1086754139,
        "Argument of Periapsis(deg)": 0.0002083789182659281,
        "Eccentricity": 0.0,
        "Inclination(deg)": 60.0,
        "Latitude(deg)": 59.415719684918436,
        "Longitude(deg)": 1.2458777101440386,
        "Mean Anomaly(deg)": 83.05841229092367,
        "RAAN(deg)": 24.999159901720514,
        "Satellite Name": "Test1 115",
        "Satellite Number": 115,
        "Semi-Major Axis(m)": 6980739.136638005,
        "Time(s)": 20
    },
    {
        "Altitude(m)": 612050.036895618,
        "Argument of Periapsis(deg)": 0.00031256837739889213,
        "Eccentricity": 0.0,
        "Inclination(deg)": 60.0,
        "Latitude(deg)": 59.53731838215483,
        "Longitude(deg)": 2.3976594077551177,
        "Mean Anomaly(deg)": 83.6785184363855,
        "RAAN(deg)": 24.998739852580773,
        "Satellite Name": "Test1 115",
        "Satellite Number": 115,
        "Semi-Major Axis(m)": 6980739.136638005,
        "Time(s)": 30
    },
    {
        "Altitude(m)": 612073.5931541864,
        "Argument of Periapsis(deg)": 0.0004167578365318562,
        "Eccentricity": 0.0,
        "Inclination(deg)": 60.0,
        "Latitude(deg)": 59.64796543703312,
        "Longitude(deg)": 3.5576731694812036,
        "Mean Anomaly(deg)": 84.29862458184732,
        "RAAN(deg)": 24.998319803441028,
        "Satellite Name": "Test1 115",
        "Satellite Number": 115,
        "Semi-Major Axis(m)": 6980739.136638005,
        "Time(s)": 40
    },
    {
        "Altitude(m)": 612094.7639594517,
        "Argument of Periapsis(deg)": 0.0005209472956648203,
        "Eccentricity": 0.0,
        "Inclination(deg)": 60.0,
        "Latitude(deg)": 59.747540588042874,
        "Longitude(deg)": 4.725220618974967,
        "Mean Anomaly(deg)": 84.91873072730917,
        "RAAN(deg)": 24.997899754301287,
        "Satellite Name": "Test1 115",
        "Satellite Number": 115,
        "Semi-Major Axis(m)": 6980739.136638005,
        "Time(s)": 50
    },
    {
        "Altitude(m)": 612113.5371933614,
        "Argument of Periapsis(deg)": 0.0006251367547977843,
        "Eccentricity": 0.0,
        "Inclination(deg)": 60.0,
        "Latitude(deg)": 59.83593410261891,
        "Longitude(deg)": 5.899571327364805,
        "Mean Anomaly(deg)": 85.53883687277099,
        "RAAN(deg)": 24.997479705161545,
        "Satellite Name": "Test1 115",
        "Satellite Number": 115,
        "Semi-Major Axis(m)": 6980739.136638005,
        "Time(s)": 60
    },
    {
        "Altitude(m)": 612129.9021171823,
        "Argument of Periapsis(deg)": 0.0007293262139307483,
        "Eccentricity": 0.0,
        "Inclination(deg)": 60.0,
        "Latitude(deg)": 59.91304735610578,
        "Longitude(deg)": 7.07996584032155,
        "Mean Anomaly(deg)": 86.15894301823282,
        "RAAN(deg)": 24.997059656021804,
        "Satellite Name": "Test1 115",
        "Satellite Number": 115,
        "Semi-Major Axis(m)": 6980739.136638005,
        "Time(s)": 70
    },
    {
        "Altitude(m)": 612143.8493765672,
        "Argument of Periapsis(deg)": 0.0008335156730637124,
        "Eccentricity": 0.0,
        "Inclination(deg)": 60.0,
        "Latitude(deg)": 59.97879336326826,
        "Longitude(deg)": 8.265617498475477,
        "Mean Anomaly(deg)": 86.77904916369465,
        "RAAN(deg)": 24.99663960688206,
        "Satellite Name": "Test1 115",
        "Satellite Number": 115,
        "Semi-Major Axis(m)": 6980739.136638005,
        "Time(s)": 80
    },
    {
        "Altitude(m)": 612155.3710059674,
        "Argument of Periapsis(deg)": 0.0009377051321966765,
        "Eccentricity": 0.0,
        "Inclination(deg)": 60.0,
        "Latitude(deg)": 60.03309725588799,
        "Longitude(deg)": 9.455716055105315,
        "Mean Anomaly(deg)": 87.39915530915648,
        "RAAN(deg)": 24.996219557742318,
        "Satellite Name": "Test1 115",
        "Satellite Number": 115,
        "Semi-Major Axis(m)": 6980739.136638005,
        "Time(s)": 90
    },
    {
        "Altitude(m)": 612164.4604323629,
        "Argument of Periapsis(deg)": 0.0010418945913296407,
        "Eccentricity": 0.0,
        "Inclination(deg)": 60.0,
        "Latitude(deg)": 60.07589670047506,
        "Longitude(deg)": 10.649431550928226,
        "Mean Anomaly(deg)": 88.0192614546183,
        "RAAN(deg)": 24.995799508602577,
        "Satellite Name": "Test1 115",
        "Satellite Number": 115,
        "Semi-Major Axis(m)": 6980739.136638005,
        "Time(s)": 100
    },
    {
        "Altitude(m)": 612171.1124783737,
        "Argument of Periapsis(deg)": 0.0011460840504626045,
        "Eccentricity": 0.0,
        "Inclination(deg)": 60.0,
        "Latitude(deg)": 60.107142250749426,
        "Longitude(deg)": 11.845916900710622,
        "Mean Anomaly(deg)": 88.63936760008013,
        "RAAN(deg)": 24.99537945946283,
        "Satellite Name": "Test1 115",
        "Satellite Number": 115,
        "Semi-Major Axis(m)": 6980739.136638005,
        "Time(s)": 110
    },
    {
        "Altitude(m)": 612175.323364688,
        "Argument of Periapsis(deg)": 0.0012502735095955685,
        "Eccentricity": 0.0,
        "Inclination(deg)": 60.0,
        "Latitude(deg)": 60.12679763030288,
        "Longitude(deg)": 13.044312180461384,
        "Mean Anomaly(deg)": 89.25947374554197,
        "RAAN(deg)": 24.994959410323087,
        "Satellite Name": "Test1 115",
        "Satellite Number": 115,
        "Semi-Major Axis(m)": 6980739.136638005,
        "Time(s)": 120
    },
    {
        "Altitude(m)": 612177.0907118421,
        "Argument of Periapsis(deg)": 0.0013544629687285324,
        "Eccentricity": 0.0,
        "Inclination(deg)": 60.0,
        "Latitude(deg)": 60.13483994169695,
        "Longitude(deg)": 14.243749061434768,
        "Mean Anomaly(deg)": 89.87957989100381,
        "RAAN(deg)": 24.994539361183342,
        "Satellite Name": "Test1 115",
        "Satellite Number": 115,
        "Semi-Major Axis(m)": 6980739.136638005,
        "Time(s)": 130
    },
    {
        "Altitude(m)": 612176.4135413362,
        "Argument of Periapsis(deg)": 0.0014586524278614966,
        "Eccentricity": 0.0,
        "Inclination(deg)": 60.0,
        "Latitude(deg)": 60.13125979919388,
        "Longitude(deg)": 15.443353834062437,
        "Mean Anomaly(deg)": 90.49968603646563,
        "RAAN(deg)": 24.9941193120436,
        "Satellite Name": "Test1 115",
        "Satellite Number": 115,
        "Semi-Major Axis(m)": 6980739.136638005,
        "Time(s)": 140
    },
    {
        "Altitude(m)": 612173.2922760912,
        "Argument of Periapsis(deg)": 0.0015628418869944607,
        "Eccentricity": 0.0,
        "Inclination(deg)": 60.0,
        "Latitude(deg)": 60.11606138333395,
        "Longitude(deg)": 16.642252001351885,
        "Mean Anomaly(deg)": 91.11979218192747,
        "RAAN(deg)": 24.99369926290386,
        "Satellite Name": "Test1 115",
        "Satellite Number": 115,
        "Semi-Major Axis(m)": 6980739.136638005,
        "Time(s)": 150
    },
    {
        "Altitude(m)": 612167.7287402492,
        "Argument of Periapsis(deg)": 0.0016670313461274247,
        "Eccentricity": 0.0,
        "Inclination(deg)": 60.0,
        "Latitude(deg)": 60.08926241661718,
        "Longitude(deg)": 17.839572881443008,
        "Mean Anomaly(deg)": 91.73989832738928,
        "RAAN(deg)": 24.99327921376412,
        "Satellite Name": "Test1 115",
        "Satellite Number": 115,
        "Semi-Major Axis(m)": 6980739.136638005,
        "Time(s)": 160
    },
    {
        "Altitude(m)": 612159.7261583095,
        "Argument of Periapsis(deg)": 0.0017712208052603888,
        "Eccentricity": 0.0,
        "Inclination(deg)": 60.0,
        "Latitude(deg)": 60.050894060616145,
        "Longitude(deg)": 19.034452658820555,
        "Mean Anomaly(deg)": 92.36000447285112,
        "RAAN(deg)": 24.992859164624374,
        "Satellite Name": "Test1 115",
        "Satellite Number": 115,
        "Semi-Major Axis(m)": 6980739.136638005,
        "Time(s)": 170
    },
    {
        "Altitude(m)": 612149.2891536047,
        "Argument of Periapsis(deg)": 0.001875410264393353,
        "Eccentricity": 0.0,
        "Inclination(deg)": 60.0,
        "Latitude(deg)": 60.00100073591703,
        "Longitude(deg)": 20.226038863127783,
        "Mean Anomaly(deg)": 92.98011061831296,
        "RAAN(deg)": 24.992439115484633,
        "Satellite Name": "Test1 115",
        "Satellite Number": 115,
        "Semi-Major Axis(m)": 6980739.136638005,
        "Time(s)": 180
    },
    {
        "Altitude(m)": 612136.4237461201,
        "Argument of Periapsis(deg)": 0.0019795997235263173,
        "Eccentricity": 0.0,
        "Inclination(deg)": 60.0,
        "Latitude(deg)": 59.93963986730642,
        "Longitude(deg)": 21.413494717745884,
        "Mean Anomaly(deg)": 93.60021676377477,
        "RAAN(deg)": 24.99201906634489,
        "Satellite Name": "Test1 115",
        "Satellite Number": 115,
        "Semi-Major Axis(m)": 6980739.136638005,
        "Time(s)": 190
    }
]